NORAD_CAT_ID,OBJECT_NAME,OBJECT_TYPE,EPOCH,MEAN_MOTION,ECCENTRICITY,INCLINATION,RA_OF_ASC_NODE,ARG_OF_PERICENTER,MEAN_ANOMALY,BSTAR,MEAN_MOTION_DOT,MEAN_MOTION_DDOT,TLE_LINE0,TLE_LINE1,TLE_LINE2,SEMIMAJOR_AXIS,PERIOD,APOGEE,PERIGEE,DECAYED
52299.0,STARLINK-3759,PAYLOAD,2023-03-29 11:16:41,15.08865557,9.24e-05,53.214,250.4595,333.3359,26.7585,0.0015296,0.00024156,0.0,0 STARLINK-3759,1 52299U 22041AQ  23088.46992190  .00024156  00000-0  15296-2 0  9990,2 52299  53.2140 250.4595 0000924 333.3359  26.7585 15.08865557 53256,6917.802,95.436,540.306,539.028,0.0
52299.0,STARLINK-3759,PAYLOAD,2023-03-29 17:38:13,15.08854705,6.8e-05,53.2145,249.2699,97.9921,262.1149,0.00068294,0.00010602,0.0,0 STARLINK-3759,1 52299U 22041AQ  23088.73487899  .00010602  00000-0  68294-3 0  9993,2 52299  53.2145 249.2699 0000680  97.9921 262.1149 15.08854705 53298,6917.835,95.437,540.171,539.23,0.0
52299.0,STARLINK-3759,PAYLOAD,2023-03-30 11:07:28,15.088409,7.94e-05,53.2139,245.9979,86.5099,273.5984,0.00061521,9.517e-05,0.0,0 STARLINK-3759,1 52299U 22041AQ  23089.46352237  .00009517  00000-0  61521-3 0  9990,2 52299  53.2139 245.9979 0000794  86.5099 273.5984 15.08840900 53409,6917.878,95.437,540.292,539.193,0.0
52299.0,STARLINK-3759,PAYLOAD,2023-03-30 15:53:37,15.08840623,9.24e-05,53.2137,245.1056,92.4021,267.7077,0.0002614,3.875e-05,0.0,0 STARLINK-3759,1 52299U 22041AQ  23089.66224207  .00003875  00000-0  26140-3 0  9996,2 52299  53.2137 245.1056 0000924  92.4021 267.7077 15.08840623 52219,6917.878,95.438,540.383,539.104,0.0
52299.0,STARLINK-3759,PAYLOAD,2023-03-31 03:01:19,15.08837966,8.92e-05,53.2132,243.0242,92.1553,267.9541,0.00028758,4.292e-05,0.0,0 STARLINK-3759,1 52299U 22041AQ  23090.12592477  .00004292  00000-0  28758-3 0  9997,2 52299  53.2132 243.0242 0000892  92.1553 267.9541 15.08837966 53506,6917.887,95.438,540.369,539.135,0.0
52299.0,STARLINK-3759,PAYLOAD,2023-04-01 02:52:06,15.08830161,6.84e-05,53.2121,238.5667,184.3309,175.7678,-0.00011154,-2.062e-05,0.0,0 STARLINK-3759,1 52299U 22041AQ  23091.11952304 -.00002062  00000-0 -11154-3 0  9993,2 52299  53.2121 238.5667 0000684 184.3309 175.7678 15.08830161 53659,6917.91,95.438,540.249,539.302,0.0
52299.0,STARLINK-3759,PAYLOAD,2023-04-01 09:13:39,15.08830574,0.0001009,53.2142,237.3749,106.8792,253.2311,1.2154e-05,-9.4e-07,0.0,0 STARLINK-3759,1 52299U 22041AQ  23091.38449027 -.00000094  00000-0  12154-4 0  9999,2 52299  53.2142 237.3749 0001009 106.8792 253.2311 15.08830574 52470,6917.909,95.438,540.472,539.076,0.0
52299.0,STARLINK-3759,PAYLOAD,2023-04-01 17:10:35,15.08840019,0.0001214,53.2137,235.8875,105.6504,254.4623,0.00019874,2.876e-05,0.0,0 STARLINK-3759,1 52299U 22041AQ  23091.71568797  .00002876  00000-0  19874-3 0  9996,2 52299  53.2137 235.8875 0001214 105.6504 254.4623 15.08840019 52523,6917.88,95.438,540.585,538.906,0.0
52299.0,STARLINK-3759,PAYLOAD,2023-04-02 02:42:54,15.08841571,0.0001123,53.2148,234.1049,87.9531,272.159,0.00024443,3.605e-05,0.0,0 STARLINK-3759,1 52299U 22041AQ  23092.11313019  .00003605  00000-0  24443-3 0  9995,2 52299  53.2148 234.1049 0001123  87.9531 272.1590 15.08841571 53807,6917.876,95.437,540.517,538.964,0.0
52299.0,STARLINK-3759,PAYLOAD,2023-04-02 13:50:36,15.08841928,0.0001316,53.2139,232.0233,83.7829,276.3313,0.00023846,3.509e-05,0.0,0 STARLINK-3759,1 52299U 22041AQ  23092.57681176  .00003509  00000-0  23846-3 0  9996,2 52299  53.2139 232.0233 0001316  83.7829 276.3313 15.08841928 52654,6917.874,95.437,540.65,538.829,0.0
52299.0,STARLINK-3759,PAYLOAD,2023-04-02 18:36:45,15.08852193,0.0001266,53.2126,231.1301,84.0451,276.0685,0.00048177,7.39e-05,0.0,0 STARLINK-3759,1 52299U 22041AQ  23092.77552803  .00007390  00000-0  48177-3 0  9998,2 52299  53.2126 231.1301 0001266  84.0451 276.0685 15.08852193 52683,6917.843,95.437,540.584,538.832,0.0
52299.0,STARLINK-3759,PAYLOAD,2023-04-03 02:33:41,15.08836967,0.0001188,53.2142,229.6436,70.2861,289.8259,0.00013541,1.868e-05,0.0,0 STARLINK-3759,1 52299U 22041AQ  23093.10673272  .00001868  00000-0  13541-3 0  9991,2 52299  53.2142 229.6436 0001188  70.2861 289.8259 15.08836967 53958,6917.89,95.438,540.577,538.933,0.0
52299.0,STARLINK-3759,PAYLOAD,2023-04-03 08:55:14,15.08839622,0.0001496,53.2137,228.4539,75.6889,284.4269,0.00021441,3.126e-05,0.0,0 STARLINK-3759,1 52299U 22041AQ  23093.37169439  .00003126  00000-0  21441-3 0  9992,2 52299  53.2137 228.4539 0001496  75.6889 284.4269 15.08839622 52776,6917.882,95.438,540.781,538.712,0.0
52299.0,STARLINK-3759,PAYLOAD,2023-04-04 11:56:47,15.08845824,0.0001394,53.2139,223.4,62.4324,297.681,0.00029107,4.348e-05,0.0,0 STARLINK-3759,1 52299U 22041AQ  23094.49777345  .00004348  00000-0  29107-3 0  9991,2 52299  53.2139 223.4000 0001394  62.4324 297.6810 15.08845824 54165,6917.863,95.437,540.692,538.763,0.0
52299.0,STARLINK-3759,PAYLOAD,2023-04-04 18:18:19,15.08855459,0.0001384,53.2127,222.206,81.8028,278.3121,0.00045808,7.013e-05,0.0,0 STARLINK-3759,1 52299U 22041AQ  23094.76272873  .00007013  00000-0  45808-3 0  9995,2 52299  53.2127 222.2060 0001384  81.8028 278.3121 15.08855459 52984,6917.833,95.437,540.656,538.741,0.0
52299.0,STARLINK-3759,PAYLOAD,2023-04-05 13:22:57,15.08840447,0.000115,53.2139,218.6405,68.2421,291.8693,0.00010458,1.377e-05,0.0,0 STARLINK-3759,1 52299U 22041AQ  23095.55761403  .00001377  00000-0  10458-3 0  9995,2 52299  53.2139 218.6405 0001150  68.2421 291.8693 15.08840447 54321,6917.879,95.438,540.54,538.948,0.0
52299.0,STARLINK-3759,PAYLOAD,2023-04-05 14:58:20,15.08839838,0.0001946,53.214,218.3389,111.1307,248.9893,0.00031394,4.712e-05,0.0,0 STARLINK-3759,1 52299U 22041AQ  23095.62385326  .00004712  00000-0  31394-3 0  9997,2 52299  53.2140 218.3389 0001946 111.1307 248.9893 15.08839838 53118,6917.881,95.438,541.092,538.4,0.0
52299.0,STARLINK-3759,PAYLOAD,2023-04-06 11:38:21,15.08845114,0.0001252,53.2154,214.4778,88.1763,271.9372,0.00039416,5.992e-05,0.0,0 STARLINK-3759,1 52299U 22041AQ  23096.48497315  .00005992  00000-0  39416-3 0  9998,2 52299  53.2154 214.4778 0001252  88.1763 271.9372 15.08845114 53247,6917.865,95.437,540.596,538.864,0.0
52299.0,STARLINK-3759,PAYLOAD,2023-04-06 17:59:53,15.08855689,0.0001368,53.2149,213.2867,98.3831,261.7317,0.00057608,8.896e-05,0.0,0 STARLINK-3759,1 52299U 22041AQ  23096.74992884  .00008896  00000-0  57608-3 0  9997,2 52299  53.2149 213.2867 0001368  98.3831 261.7317 15.08855689 54508,6917.832,95.437,540.644,538.751,0.0
52299.0,STARLINK-3759,PAYLOAD,2023-04-07 00:21:26,15.08841378,4.21e-05,53.2153,212.0987,169.3217,190.7784,-4.2054e-05,-9.57e-06,0.0,0 STARLINK-3759,1 52299U 22041AQ  23097.01488636 -.00000957  00000-0 -42054-4 0  9995,2 52299  53.2153 212.0987 0000421 169.3217 190.7784 15.08841378 54542,6917.876,95.437,540.032,539.45,0.0
52299.0,STARLINK-3759,PAYLOAD,2023-04-07 11:29:08,15.08841601,0.0001211,53.2156,210.0171,105.8426,254.27,8.1946e-05,1.017e-05,0.0,0 STARLINK-3759,1 52299U 22041AQ  23097.47857124  .00001017  00000-0  81946-4 0  9996,2 52299  53.2156 210.0171 0001211 105.8426 254.2700 15.08841601 53398,6917.875,95.437,540.578,538.903,0.0
52299.0,STARLINK-3759,PAYLOAD,2023-04-08 11:19:55,15.08837755,0.0001234,53.2146,205.556,107.2025,252.9102,7.799e-05,9.53e-06,0.0,0 STARLINK-3759,1 52299U 22041AQ  23098.47217449  .00000953  00000-0  77990-4 0  9999,2 52299  53.2146 205.5560 0001234 107.2025 252.9102 15.08837755 54762,6917.887,95.438,540.606,538.899,0.0
52299.0,STARLINK-3759,PAYLOAD,2023-04-08 12:55:19,15.08837801,0.000126,53.2145,205.2585,107.9428,252.1701,9.2994e-05,1.192e-05,0.0,0 STARLINK-3759,1 52299U 22041AQ  23098.53841463  .00001192  00000-0  92994-4 0  9992,2 52299  53.2145 205.2585 0001260 107.9428 252.1701 15.08837801 53553,6917.887,95.438,540.624,538.88,0.0
52299.0,STARLINK-3759,PAYLOAD,2023-04-09 11:10:43,15.08841086,0.0001235,53.2158,201.0963,99.1504,260.9628,0.0001941,2.803e-05,0.0,0 STARLINK-3759,1 52299U 22041AQ  23099.46577628  .00002803  00000-0  19410-3 0  9995,2 52299  53.2158 201.0963 0001235  99.1504 260.9628 15.08841086 53690,6917.877,95.437,540.596,538.888,0.0
52299.0,STARLINK-3759,PAYLOAD,2023-04-09 14:21:29,15.08842813,0.0001436,53.2156,200.5014,98.4389,261.6766,0.00033527,5.052e-05,0.0,0 STARLINK-3759,1 52299U 22041AQ  23099.59825651  .00005052  00000-0  33527-3 0  9995,2 52299  53.2156 200.5014 0001436  98.4389 261.6766 15.08842813 54933,6917.872,95.437,540.73,538.743,0.0
52299.0,STARLINK-3759,PAYLOAD,2023-04-10 06:15:21,15.08838101,0.0001504,53.2155,197.5287,77.1562,282.9598,0.0001458,2.033e-05,0.0,0 STARLINK-3759,1 52299U 22041AQ  23100.26066054  .00002033  00000-0  14580-3 0  9990,2 52299  53.2155 197.5287 0001504  77.1562 282.9598 15.08838101 55038,6917.886,95.438,540.792,538.711,0.0
52299.0,STARLINK-3759,PAYLOAD,2023-04-11 12:27:39,15.08856013,0.0001324,53.2136,191.8786,57.9731,302.1389,0.00029986,4.49e-05,0.0,0 STARLINK-3759,1 52299U 22041AQ  23101.51920897  .00004490  00000-0  29986-3 0  9998,2 52299  53.2136 191.8786 0001324  57.9731 302.1389 15.08856013 54003,6917.831,95.437,540.612,538.781,0.0
52299.0,STARLINK-3759,PAYLOAD,2023-04-11 15:38:25,15.08861851,0.0001506,53.2136,191.2814,83.4077,276.7087,0.00041128,6.267e-05,0.0,0 STARLINK-3759,1 52299U 22041AQ  23101.65168599  .00006267  00000-0  41128-3 0  9992,2 52299  53.2136 191.2814 0001506  83.4077 276.7087 15.08861851 54027,6917.814,95.436,540.72,538.637,0.0
52299.0,STARLINK-3759,PAYLOAD,2023-04-11 23:35:21,15.08844261,0.0002056,53.2131,189.7972,72.577,287.5447,7.2428e-05,8.65e-06,0.0,0 STARLINK-3759,1 52299U 22041AQ  23101.98289343  .00000865  00000-0  72428-4 0  9995,2 52299  53.2131 189.7972 0002056  72.5770 287.5447 15.08844261 55295,6917.867,95.437,541.155,538.31,0.0
52299.0,STARLINK-3759,PAYLOAD,2023-04-12 12:18:27,15.08838713,0.000157,53.2146,187.4169,91.2708,268.8464,-9.6337e-05,-1.821e-05,0.0,0 STARLINK-3759,1 52299U 22041AQ  23102.51281291 -.00001821  00000-0 -96337-4 0  9999,2 52299  53.2146 187.4169 0001570  91.2708 268.8464 15.08838713 54153,6917.884,95.438,540.835,538.663,0.0
